[{"OBJECT_NAME":"ION SCV-010","OBJECT_ID":"2023-054Q","EPOCH":"2026-03-09T16:02:35.904768","MEAN_MOTION":15.25210322,"ECCENTRICITY":0.00127052,"INCLINATION":97.3904,"RA_OF_ASC_NODE":319.4312,"ARG_OF_PERICENTER":188.785,"MEAN_ANOMALY":171.3168,"EPHEMERIS_TYPE":0,"CLASSIFICATION_TYPE":"U","NORAD_CAT_ID":56192,"ELEMENT_SET_NO":999,"REV_AT_EPOCH":16102,"BSTAR":0.00025045068,"MEAN_MOTION_DOT":6.231e-5,"MEAN_MOTION_DDOT":0},{"OBJECT_NAME":"STARLINK-30552","OBJECT_ID":"2023-153J","EPOCH":"2026-03-09T22:00:01.999584","MEAN_MOTION":15.2672356,"ECCENTRICITY":0.00011544,"INCLINATION":43.0006,"RA_OF_ASC_NODE":65.8896,"ARG_OF_PERICENTER":264.2372,"MEAN_ANOMALY":312.9153,"EPHEMERIS_TYPE":0,"CLASSIFICATION_TYPE":"U","NORAD_CAT_ID":57999,"ELEMENT_SET_NO":999,"REV_AT_EPOCH":578,"BSTAR":0.0013314841,"MEAN_MOTION_DOT":0.0003561,"MEAN_MOTION_DDOT":0}]
